NUSAT-1 (FRESCO)        
1 41557U 16033B   22066.90872638  .00009529  00000+0  31097-3 0  9991
2 41557  97.3863 164.6798 0012413  25.0927 113.7874 15.31917058321824
BEESAT-4                
1 41619U 16040W   22066.64957819  .00010905  00000+0  39965-3 0  9996
2 41619  97.2323 120.1439 0011570 116.5673 243.6754 15.28104796305161
CAS-2T & KS-1Q          
1 41847U 16066G   22066.72093284  .00000977  00000+0  15567-3 0  9993
2 41847  98.5641 131.4578 0365108 153.9619 208.0452 14.38397388279727
NAYIF-1 (EO-88)         
1 42017U 17008BX  22066.92407768  .00013362  00000+0  44624-3 0  9996
2 42017  97.2813 134.7143 0004262 241.9043 118.1768 15.31143195281529
ZHUHAI-1 02 (CAS-4B)    
1 42759U 17034B   22066.81778887  .00003012  00000+0  19011-3 0  9992
2 42759  43.0161 172.5377 0008684   0.9027 145.5027 15.11007906260978
ZHUHAI-1 01 (CAS-4A)    
1 42761U 17034D   22066.79277402  .00002894  00000+0  18276-3 0  9998
2 42761  43.0163 171.5379 0008896   1.4784 140.5944 15.11093618260973
MAX VALIER SAT          
1 42778U 17036P   22066.68884801  .00005988  00000+0  24116-3 0  9990
2 42778  97.2207 111.3385 0010272 334.2764  25.7962 15.25174662261380
RADFXSAT (FOX-1B)       
1 43017U 17073E   22066.95697250  .00003025  00000+0  23310-3 0  9993
2 43017  97.6866 325.2969 0252230 159.6349 201.5146 14.80482832232091
FOX-1D (AO-92)          
1 43137U 18004AC  22066.74023993  .00008405  00000+0  31758-3 0  9997
2 43137  97.3773 142.9410 0008244  12.7092 347.4353 15.27208467230811
DIWATA-2B               
1 43678U 18084H   22066.84981175  .00000523  00000+0  57468-4 0  9991
2 43678  97.9518 199.0468 0008512 259.7378 100.2935 14.91944152182701
ES'HAIL 2               
1 43700U 18090A   22066.61245352  .00000138  00000+0  00000+0 0  9996
2 43700   0.0168 121.4472 0002409 252.3494  37.7791  1.00275199 12007
FOX-1CLIFF (AO-95)      
1 43770U 18099N   22066.73180598  .00002557  00000+0  23363-3 0  9993
2 43770  97.6328 135.7124 0012930 254.5372 105.4421 14.95844489177800
ITASAT 1                
1 43786U 18099AE  22066.80466697  .00002388  00000+0  21727-3 0  9999
2 43786  97.6352 136.6415 0013623 246.5226 113.4564 14.96071390177852
JY1SAT (JO-97)          
1 43803U 18099AX  22066.91827361  .00002476  00000+0  22302-3 0  9998
2 43803  97.6300 136.4910 0013873 245.6660 114.3114 14.96427248177883
UWE-4                   
1 43880U 18111E   22066.72281574  .00002384  00000+0  20946-3 0  9997
2 43880  97.6747 334.8246 0011188 306.7493  53.2701 14.97478012174470
NEXUS (FO-99)           
1 43937U 19003F   22066.68803660  .00009195  00000+0  33614-3 0  9995
2 43937  97.1448 104.1170 0022804 153.3525 206.8892 15.28044351174421
PSAT2 (NO-104)          
1 44354U 19036R   22066.67322933  .00056949  00000+0  63193-3 0  9997
2 44354  28.5251 157.3107 0271969 274.0036  82.9517 15.27769311149047
BRICSAT2 (NO-103)       
1 44355U 19036S   22066.63712647  .00215723  65932-5  10245-2 0  9996
2 44355  28.5208  46.3490 0128497  95.8083 265.7189 15.70179657150145
JAISAT-1                
1 44419U 19038F   22066.88213336  .00006918  00000+0  36755-3 0  9995
2 44419  97.6258  36.4024 0021929 120.5917 239.7481 15.15415773147665
DUCHIFAT-3              
1 44854U 19089C   22066.83826963  .00002671  00000+0  21554-3 0  9998
2 44854  36.9671 342.3751 0006358 114.0818 246.0615 15.00240544122665
CAS-6 (TO-108)          
1 44881U 19093C   22066.94116718  .00000389  00000+0  56163-4 0  9994
2 44881  97.9001 147.5928 0015735 151.8868 208.3200 14.81584869119748
RS-44 & BREEZE-KM R/B   
1 44909U 19096E   22066.94500587  .00000009  00000+0 -90710-5 0  9996
2 44909  82.5196 297.7319 0217008 196.8302 162.5522 12.79712141102522
ORBITAL FACTORY 2 (OF-2)
1 45113U 19071C   22066.73405460  .00021105  00000+0  52535-3 0  9998
2 45113  51.6398 197.8410 0009885 167.8021 192.3204 15.40166391117672
HUSKYSAT-1 (HO-107)     
1 45119U 19071J   22066.89325899  .00020071  00000+0  50590-3 0  9998
2 45119  51.6398 196.6375 0009501 164.6273 195.5002 15.39822084117693
BY70-2                  
1 45857U 20042B   22066.94778364  .00004086  00000+0  56859-3 0  9994
2 45857  97.9632 144.8595 0012248  88.8245 271.4549 14.78302403 90457
SALSAT                  
1 46495U 20068K   22066.78596789  .00002796  00000+0  20669-3 0  9998
2 46495  97.7199   8.1593 0015520 261.2848  98.6620 15.03956805 78909
BY70-3                  
1 46839U 20079N   22066.92409098  .00015332  00000+0  41893-3 0  9996
2 46839  97.2100 140.6433 0005930 351.9423  94.5915 15.37463550 74627
RADFXSAT-2 (AO-109)     
1 47311U 21002C   22066.60351211  .00007331  00000+0  31544-3 0  9999
2 47311  60.6885  25.0964 0017920 192.1243 167.9416 15.23418750 62938
UVSQ-SAT                
1 47438U 21006AB  22066.69786868  .00005230  00000+0  28864-3 0  9999
2 47438  97.4509 127.8303 0010801 267.2685  92.7310 15.14328058 61873
DIY-1 (ARDUIQUBE)       
1 47963U 21022AH  22066.67734182  .00012850  00000+0  78984-3 0  9994
2 47963  97.5409 329.4373 0019722 119.9467 240.3723 15.10026593 51575
XW-3 (CAS-9)            
1 50466U 21131B   22066.89543430  .00000137  00000+0  59539-4 0  9996
2 50466  98.5877 144.1757 0005747  95.9313 264.2529 14.38446955 10313
